CCSDS_OMM_VERS = 2.0
CREATION_DATE  = 
ORIGINATOR     = 

OBJECT_NAME    = STARLINK-36872
OBJECT_ID      = 2026-037Z
CENTER_NAME    = EARTH
REF_FRAME      = TEME
TIME_SYSTEM    = UTC
MEAN_ELEMENT_THEORY = SGP/SGP4

EPOCH          = 2026-03-19T20:00:01.999008
MEAN_MOTION    = 15.71898318
ECCENTRICITY   = .0001314
INCLINATION    = 42.9993
RA_OF_ASC_NODE = 136.2646
ARG_OF_PERICENTER = 270.9416
MEAN_ANOMALY   = 300.2752

EPHEMERIS_TYPE = 0
CLASSIFICATION_TYPE = U
NORAD_CAT_ID   = 67955
ELEMENT_SET_NO = 999
REV_AT_EPOCH   = 482
BSTAR          = -.1679E-1
MEAN_MOTION_DOT = -.1989262E-1
MEAN_MOTION_DDOT = 0

CCSDS_OMM_VERS = 2.0
CREATION_DATE  = 
ORIGINATOR     = 

OBJECT_NAME    = STARLINK-36918
OBJECT_ID      = 2026-037AA
CENTER_NAME    = EARTH
REF_FRAME      = TEME
TIME_SYSTEM    = UTC
MEAN_ELEMENT_THEORY = SGP/SGP4

EPOCH          = 2026-03-19T20:00:01.999008
MEAN_MOTION    = 15.68471206
ECCENTRICITY   = .0001198
INCLINATION    = 42.9994
RA_OF_ASC_NODE = 136.3415
ARG_OF_PERICENTER = 275.9140
MEAN_ANOMALY   = 264.5876

EPHEMERIS_TYPE = 0
CLASSIFICATION_TYPE = U
NORAD_CAT_ID   = 67956
ELEMENT_SET_NO = 999
REV_AT_EPOCH   = 482
BSTAR          = -.19313E-1
MEAN_MOTION_DOT = -.1980856E-1
MEAN_MOTION_DDOT = 0

CCSDS_OMM_VERS = 2.0
CREATION_DATE  = 
ORIGINATOR     = 

OBJECT_NAME    = STARLINK-36829
OBJECT_ID      = 2026-037AB
CENTER_NAME    = EARTH
REF_FRAME      = TEME
TIME_SYSTEM    = UTC
MEAN_ELEMENT_THEORY = SGP/SGP4

EPOCH          = 2026-03-19T20:00:01.999008
MEAN_MOTION    = 15.65073410
ECCENTRICITY   = .0001308
INCLINATION    = 42.9992
RA_OF_ASC_NODE = 136.4744
ARG_OF_PERICENTER = 282.8603
MEAN_ANOMALY   = 204.3322

EPHEMERIS_TYPE = 0
CLASSIFICATION_TYPE = U
NORAD_CAT_ID   = 67957
ELEMENT_SET_NO = 999
REV_AT_EPOCH   = 482
BSTAR          = -.22187E-1
MEAN_MOTION_DOT = -.1979996E-1
MEAN_MOTION_DDOT = 0

CCSDS_OMM_VERS = 2.0
CREATION_DATE  = 
ORIGINATOR     = 

OBJECT_NAME    = STARLINK-36799
OBJECT_ID      = 2026-037AC
CENTER_NAME    = EARTH
REF_FRAME      = TEME
TIME_SYSTEM    = UTC
MEAN_ELEMENT_THEORY = SGP/SGP4

EPOCH          = 2026-03-19T20:00:01.999008
MEAN_MOTION    = 15.74364148
ECCENTRICITY   = .0001237
INCLINATION    = 42.9992
RA_OF_ASC_NODE = 136.1959
ARG_OF_PERICENTER = 270.4741
MEAN_ANOMALY   = 328.2701

EPHEMERIS_TYPE = 0
CLASSIFICATION_TYPE = U
NORAD_CAT_ID   = 67958
ELEMENT_SET_NO = 999
REV_AT_EPOCH   = 482
BSTAR          = -.15058E-1
MEAN_MOTION_DOT = -.1985847E-1
MEAN_MOTION_DDOT = 0

CCSDS_OMM_VERS = 2.0
CREATION_DATE  = 
ORIGINATOR     = 

OBJECT_NAME    = STARLINK-36834
OBJECT_ID      = 2026-037AD
CENTER_NAME    = EARTH
REF_FRAME      = TEME
TIME_SYSTEM    = UTC
MEAN_ELEMENT_THEORY = SGP/SGP4

EPOCH          = 2026-03-19T20:00:01.999008
MEAN_MOTION    = 15.64853077
ECCENTRICITY   = .0001315
INCLINATION    = 42.9990
RA_OF_ASC_NODE = 136.4279
ARG_OF_PERICENTER = 281.7899
MEAN_ANOMALY   = 223.5552

EPHEMERIS_TYPE = 0
CLASSIFICATION_TYPE = U
NORAD_CAT_ID   = 67959
ELEMENT_SET_NO = 999
REV_AT_EPOCH   = 482
BSTAR          = -.22371E-1
MEAN_MOTION_DOT = -.1978891E-1
MEAN_MOTION_DDOT = 0

CCSDS_OMM_VERS = 2.0
CREATION_DATE  = 
ORIGINATOR     = 

OBJECT_NAME    = STARLINK-36841
OBJECT_ID      = 2026-037AE
CENTER_NAME    = EARTH
REF_FRAME      = TEME
TIME_SYSTEM    = UTC
MEAN_ELEMENT_THEORY = SGP/SGP4

EPOCH          = 2026-03-19T20:00:01.999008
MEAN_MOTION    = 15.65829004
ECCENTRICITY   = .000125
INCLINATION    = 42.9990
RA_OF_ASC_NODE = 136.4035
ARG_OF_PERICENTER = 282.0665
MEAN_ANOMALY   = 233.0792

EPHEMERIS_TYPE = 0
CLASSIFICATION_TYPE = U
NORAD_CAT_ID   = 67960
ELEMENT_SET_NO = 999
REV_AT_EPOCH   = 482
BSTAR          = -.21497E-1
MEAN_MOTION_DOT = -.197824E-1
MEAN_MOTION_DDOT = 0

CCSDS_OMM_VERS = 2.0
CREATION_DATE  = 
ORIGINATOR     = 

OBJECT_NAME    = STARLINK-36912
OBJECT_ID      = 2026-038A
CENTER_NAME    = EARTH
REF_FRAME      = TEME
TIME_SYSTEM    = UTC
MEAN_ELEMENT_THEORY = SGP/SGP4

EPOCH          = 2026-03-19T20:00:01.999008
MEAN_MOTION    = 15.61796490
ECCENTRICITY   = .0001618
INCLINATION    = 97.2849
RA_OF_ASC_NODE = 89.6134
ARG_OF_PERICENTER = 91.8495
MEAN_ANOMALY   = 198.1545

EPHEMERIS_TYPE = 0
CLASSIFICATION_TYPE = U
NORAD_CAT_ID   = 67961
ELEMENT_SET_NO = 999
REV_AT_EPOCH   = 483
BSTAR          = -.3041E-1
MEAN_MOTION_DOT = -.2315356E-1
MEAN_MOTION_DDOT = 0

CCSDS_OMM_VERS = 2.0
CREATION_DATE  = 
ORIGINATOR     = 

OBJECT_NAME    = STARLINK-36881
OBJECT_ID      = 2026-038B
CENTER_NAME    = EARTH
REF_FRAME      = TEME
TIME_SYSTEM    = UTC
MEAN_ELEMENT_THEORY = SGP/SGP4

EPOCH          = 2026-03-19T16:00:01.999584
MEAN_MOTION    = 15.63074432
ECCENTRICITY   = .0001724
INCLINATION    = 97.2854
RA_OF_ASC_NODE = 89.4454
ARG_OF_PERICENTER = 79.5124
MEAN_ANOMALY   = 3.0461

EPHEMERIS_TYPE = 0
CLASSIFICATION_TYPE = U
NORAD_CAT_ID   = 67962
ELEMENT_SET_NO = 999
REV_AT_EPOCH   = 480
BSTAR          = -.30118E-1
MEAN_MOTION_DOT = -.2399114E-1
MEAN_MOTION_DDOT = 0

CCSDS_OMM_VERS = 2.0
CREATION_DATE  = 
ORIGINATOR     = 

OBJECT_NAME    = STARLINK-36357
OBJECT_ID      = 2026-038C
CENTER_NAME    = EARTH
REF_FRAME      = TEME
TIME_SYSTEM    = UTC
MEAN_ELEMENT_THEORY = SGP/SGP4

EPOCH          = 2026-03-19T16:00:01.999584
MEAN_MOTION    = 15.57753046
ECCENTRICITY   = .0001424
INCLINATION    = 97.2845
RA_OF_ASC_NODE = 89.4308
ARG_OF_PERICENTER = 84.1424
MEAN_ANOMALY   = 314.6858

EPHEMERIS_TYPE = 0
CLASSIFICATION_TYPE = U
NORAD_CAT_ID   = 67963
ELEMENT_SET_NO = 999
REV_AT_EPOCH   = 480
BSTAR          = -.35957E-1
MEAN_MOTION_DOT = -.2341026E-1
MEAN_MOTION_DDOT = 0

CCSDS_OMM_VERS = 2.0
CREATION_DATE  = 
ORIGINATOR     = 

OBJECT_NAME    = STARLINK-36349
OBJECT_ID      = 2026-038D
CENTER_NAME    = EARTH
REF_FRAME      = TEME
TIME_SYSTEM    = UTC
MEAN_ELEMENT_THEORY = SGP/SGP4

EPOCH          = 2026-03-19T16:00:01.999584
MEAN_MOTION    = 15.57799011
ECCENTRICITY   = .0001468
INCLINATION    = 97.2845
RA_OF_ASC_NODE = 89.4275
ARG_OF_PERICENTER = 94.0540
MEAN_ANOMALY   = 297.3309

EPHEMERIS_TYPE = 0
CLASSIFICATION_TYPE = U
NORAD_CAT_ID   = 67964
ELEMENT_SET_NO = 999
REV_AT_EPOCH   = 480
BSTAR          = -.35834E-1
MEAN_MOTION_DOT = -.2337602E-1
MEAN_MOTION_DDOT = 0

CCSDS_OMM_VERS = 2.0
CREATION_DATE  = 
ORIGINATOR     = 

OBJECT_NAME    = STARLINK-36806
OBJECT_ID      = 2026-038E
CENTER_NAME    = EARTH
REF_FRAME      = TEME
TIME_SYSTEM    = UTC
MEAN_ELEMENT_THEORY = SGP/SGP4

EPOCH          = 2026-03-19T16:00:01.999584
MEAN_MOTION    = 15.63995631
ECCENTRICITY   = .0001844
INCLINATION    = 97.2858
RA_OF_ASC_NODE = 89.4571
ARG_OF_PERICENTER = 82.7949
MEAN_ANOMALY   = 25.3254

EPHEMERIS_TYPE = 0
CLASSIFICATION_TYPE = U
NORAD_CAT_ID   = 67965
ELEMENT_SET_NO = 999
REV_AT_EPOCH   = 480
BSTAR          = -.29335E-1
MEAN_MOTION_DOT = -.2420493E-1
MEAN_MOTION_DDOT = 0

CCSDS_OMM_VERS = 2.0
CREATION_DATE  = 
ORIGINATOR     = 

OBJECT_NAME    = STARLINK-36820
OBJECT_ID      = 2026-038F
CENTER_NAME    = EARTH
REF_FRAME      = TEME
TIME_SYSTEM    = UTC
MEAN_ELEMENT_THEORY = SGP/SGP4

EPOCH          = 2026-03-19T16:00:01.999584
MEAN_MOTION    = 15.64367930
ECCENTRICITY   = .0001996
INCLINATION    = 97.2858
RA_OF_ASC_NODE = 89.4610
ARG_OF_PERICENTER = 85.9807
MEAN_ANOMALY   = 31.0914

EPHEMERIS_TYPE = 0
CLASSIFICATION_TYPE = U
NORAD_CAT_ID   = 67966
ELEMENT_SET_NO = 999
REV_AT_EPOCH   = 480
BSTAR          = -.28899E-1
MEAN_MOTION_DOT = -.2420251E-1
MEAN_MOTION_DDOT = 0

CCSDS_OMM_VERS = 2.0
CREATION_DATE  = 
ORIGINATOR     = 

OBJECT_NAME    = STARLINK-36819
OBJECT_ID      = 2026-038G
CENTER_NAME    = EARTH
REF_FRAME      = TEME
TIME_SYSTEM    = UTC
MEAN_ELEMENT_THEORY = SGP/SGP4

EPOCH          = 2026-03-19T16:00:01.999584
MEAN_MOTION    = 15.49203057
ECCENTRICITY   = .0001198
INCLINATION    = 97.2854
RA_OF_ASC_NODE = 89.3354
ARG_OF_PERICENTER = 83.3120
MEAN_ANOMALY   = 98.4808

EPHEMERIS_TYPE = 0
CLASSIFICATION_TYPE = U
NORAD_CAT_ID   = 67967
ELEMENT_SET_NO = 999
REV_AT_EPOCH   = 480
BSTAR          = -.38158E-3
MEAN_MOTION_DOT = -.20799E-3
MEAN_MOTION_DDOT = 0

CCSDS_OMM_VERS = 2.0
CREATION_DATE  = 
ORIGINATOR     = 

OBJECT_NAME    = STARLINK-36812
OBJECT_ID      = 2026-038H
CENTER_NAME    = EARTH
REF_FRAME      = TEME
TIME_SYSTEM    = UTC
MEAN_ELEMENT_THEORY = SGP/SGP4

EPOCH          = 2026-03-19T16:00:01.999584
MEAN_MOTION    = 15.64752496
ECCENTRICITY   = .0001937
INCLINATION    = 97.2859
RA_OF_ASC_NODE = 89.4665
ARG_OF_PERICENTER = 81.2493
MEAN_ANOMALY   = 50.8280

EPHEMERIS_TYPE = 0
CLASSIFICATION_TYPE = U
NORAD_CAT_ID   = 67968
ELEMENT_SET_NO = 999
REV_AT_EPOCH   = 480
BSTAR          = -.28219E-1
MEAN_MOTION_DOT = -.2402292E-1
MEAN_MOTION_DDOT = 0

CCSDS_OMM_VERS = 2.0
CREATION_DATE  = 
ORIGINATOR     = 

OBJECT_NAME    = STARLINK-36709
OBJECT_ID      = 2026-038J
CENTER_NAME    = EARTH
REF_FRAME      = TEME
TIME_SYSTEM    = UTC
MEAN_ELEMENT_THEORY = SGP/SGP4

EPOCH          = 2026-03-19T16:00:01.999584
MEAN_MOTION    = 15.64518145
ECCENTRICITY   = .0001981
INCLINATION    = 97.2859
RA_OF_ASC_NODE = 89.4717
ARG_OF_PERICENTER = 87.4376
MEAN_ANOMALY   = 56.8769

EPHEMERIS_TYPE = 0
CLASSIFICATION_TYPE = U
NORAD_CAT_ID   = 67969
ELEMENT_SET_NO = 999
REV_AT_EPOCH   = 480
BSTAR          = -.28452E-1
MEAN_MOTION_DOT = -.239992E-1
MEAN_MOTION_DDOT = 0

